{"type": "FeatureCollection", "features": [ {"type": "Feature", "properties": {"norad_id": 39019, "name": "PLEIADES 1B", "group": "resource", "lat": 21.813200713219036, "lon": -105.98663433439626, "alt_km": 697.3471929066918, "timestamp": "2025-12-24T05:51:19.262566+00:00", "meta": {"OBJECT_NAME": "PLEIADES 1B", "OBJECT_ID": "2012-068A", "EPOCH": "2025-12-23T22:32:54.249792", "MEAN_MOTION": 14.58562392, "ECCENTRICITY": 0.00011433, "INCLINATION": 98.1783, "RA_OF_ASC_NODE": 70.4141, "ARG_OF_PERICENTER": 86.5405, "MEAN_ANOMALY": 273.5925, "EPHEMERIS_TYPE": 0, "CLASSIFICATION_TYPE": "U", "NORAD_CAT_ID": 39019, "ELEMENT_SET_NO": 999, "REV_AT_EPOCH": 69530, "BSTAR": 9.4838995e-05, "MEAN_MOTION_DOT": 3.95e-06, "MEAN_MOTION_DDOT": 0}, "tle": {"line1": "1 39019U 12068A   25357.93951678  .00000395  00000+0  94839-4 0  9992", "line2": "2 39019  98.1783  70.4141 0001143  86.5405 273.5925 14.58562392695305"}}, "geometry": {"type": "Point", "coordinates": [-105.98663433439626, 21.813200713219036]}}, {"type": "Feature", "properties": {"norad_id": 39030, "name": "GOKTURK 2", "group": "resource", "lat": -14.92946579366364, "lon": -158.60432058675644, "alt_km": 649.4224616582906, "timestamp": "2025-12-24T05:51:19.262576+00:00", "meta": {"OBJECT_NAME": "GOKTURK 2", "OBJECT_ID": "2012-073A", "EPOCH": "2025-12-23T23:24:44.636832", "MEAN_MOTION": 14.75305568, "ECCENTRICITY": 0.00013899, "INCLINATION": 97.6883, "RA_OF_ASC_NODE": 199.0764, "ARG_OF_PERICENTER": 106.8113, "MEAN_ANOMALY": 253.3249, "EPHEMERIS_TYPE": 0, "CLASSIFICATION_TYPE": "U", "NORAD_CAT_ID": 39030, "ELEMENT_SET_NO": 999, "REV_AT_EPOCH": 69867, "BSTAR": 9.1312733e-05, "MEAN_MOTION_DOT": 5.71e-06, "MEAN_MOTION_DDOT": 0}, "tle": {"line1": "1 39030U 12073A   25357.97551663  .00000571  00000+0  91313-4 0  9995", "line2": "2 39030  97.6883 199.0764 0001389 106.8113 253.3249 14.75305568698673"}}, "geometry": {"type": "Point", "coordinates": [-158.60432058675644, -14.92946579366364]}}, {"type": "Feature", "properties": {"norad_id": 39084, "name": "LANDSAT 8", "group": "resource", "lat": -81.58242826710566, "lon": 168.9542969470959, "alt_km": 710.6015165252775, "timestamp": "2025-12-24T05:51:19.262586+00:00", "meta": {"OBJECT_NAME": "LANDSAT 8", "OBJECT_ID": "2013-008A", "EPOCH": "2025-12-23T22:02:10.222368", "MEAN_MOTION": 14.57113456, "ECCENTRICITY": 0.00010558, "INCLINATION": 98.2057, "RA_OF_ASC_NODE": 65.8259, "ARG_OF_PERICENTER": 92.3761, "MEAN_ANOMALY": 267.7558, "EPHEMERIS_TYPE": 0, "CLASSIFICATION_TYPE": "U", "NORAD_CAT_ID": 39084, "ELEMENT_SET_NO": 999, "REV_AT_EPOCH": 67237, "BSTAR": 0.00010184025, "MEAN_MOTION_DOT": 4.14e-06, "MEAN_MOTION_DDOT": 0}, "tle": {"line1": "1 39084U 13008A   25357.91817387  .00000414  00000+0  10184-3 0  9997", "line2": "2 39084  98.2057  65.8259 0001055  92.3761 267.7558 14.57113456672373"}}, "geometry": {"type": "Point", "coordinates": [168.9542969470959, -81.58242826710566]}}, {"type": "Feature", "properties": {"norad_id": 39086, "name": "SARAL", "group": "resource", "lat": -32.82887882341362, "lon": -172.40592733245506, "alt_km": 789.6674619133, "timestamp": "2025-12-24T05:51:19.262596+00:00", "meta": {"OBJECT_NAME": "SARAL", "OBJECT_ID": "2013-009A", "EPOCH": "2025-12-23T23:18:21.698208", "MEAN_MOTION": 14.32760771, "ECCENTRICITY": 0.00029633, "INCLINATION": 98.5503, "RA_OF_ASC_NODE": 181.7548, "ARG_OF_PERICENTER": 87.6039, "MEAN_ANOMALY": 272.5485, "EPHEMERIS_TYPE": 0, "CLASSIFICATION_TYPE": "U", "NORAD_CAT_ID": 39086, "ELEMENT_SET_NO": 999, "REV_AT_EPOCH": 67051, "BSTAR": 5.8810116e-05, "MEAN_MOTION_DOT": 1.17e-06, "MEAN_MOTION_DDOT": 0}, "tle": {"line1": "1 39086U 13009A   25357.97108447  .00000117  00000+0  58810-4 0  9995", "line2": "2 39086  98.5503 181.7548 0002963  87.6039 272.5485 14.32760771670515"}}, "geometry": {"type": "Point", "coordinates": [-172.40592733245506, -32.82887882341362]}}, {"type": "Feature", "properties": {"norad_id": 39150, "name": "GAOFEN-1", "group": "resource", "lat": 64.94351135759518, "lon": -93.95106129663537, "alt_km": 621.1458566759211, "timestamp": "2025-12-24T05:51:19.262606+00:00", "meta": {"OBJECT_NAME": "GAOFEN-1", "OBJECT_ID": "2013-018A", "EPOCH": "2025-12-23T22:50:12.985152", "MEAN_MOTION": 14.76497297, "ECCENTRICITY": 0.00184999, "INCLINATION": 97.9314, "RA_OF_ASC_NODE": 68.4119, "ARG_OF_PERICENTER": 109.0711, "MEAN_ANOMALY": 251.2504, "EPHEMERIS_TYPE": 0, "CLASSIFICATION_TYPE": "U", "NORAD_CAT_ID": 39150, "ELEMENT_SET_NO": 999, "REV_AT_EPOCH": 68238, "BSTAR": 9.0530126e-05, "MEAN_MOTION_DOT": 5.81e-06, "MEAN_MOTION_DDOT": 0}, "tle": {"line1": "1 39150U 13018A   25357.95153918  .00000581  00000+0  90530-4 0  9998", "line2": "2 39150  97.9314  68.4119 0018499 109.0711 251.2504 14.76497297682384"}}, "geometry": {"type": "Point", "coordinates": [-93.95106129663537, 64.94351135759518]}}, {"type": "Feature", "properties": {"norad_id": 39160, "name": "VNREDSAT 1", "group": "resource", "lat": 56.15014416170282, "lon": 41.11145881435503, "alt_km": 671.151397817106, "timestamp": "2025-12-24T05:51:19.262616+00:00", "meta": {"OBJECT_NAME": "VNREDSAT 1", "OBJECT_ID": "2013-021B", "EPOCH": "2025-12-23T23:02:20.619168", "MEAN_MOTION": 14.64938367, "ECCENTRICITY": 0.00011759, "INCLINATION": 97.9356, "RA_OF_ASC_NODE": 52.841, "ARG_OF_PERICENTER": 81.8483, "MEAN_ANOMALY": 278.2854, "EPHEMERIS_TYPE": 0, "CLASSIFICATION_TYPE": "U", "NORAD_CAT_ID": 39160, "ELEMENT_SET_NO": 999, "REV_AT_EPOCH": 67463, "BSTAR": 0.00012317537, "MEAN_MOTION_DOT": 6.13e-06, "MEAN_MOTION_DDOT": 0}, "tle": {"line1": "1 39160U 13021B   25357.95996087  .00000613  00000+0  12318-3 0  9998", "line2": "2 39160  97.9356  52.8410 0001175  81.8483 278.2854 14.64938367674639"}}, "geometry": {"type": "Point", "coordinates": [41.11145881435503, 56.15014416170282]}}, {"type": "Feature", "properties": {"norad_id": 39227, "name": "ARIRANG-5 (KOMPSAT-5)", "group": "resource", "lat": -27.42170278176655, "lon": -173.635339316838, "alt_km": 557.8425681686958, "timestamp": "2025-12-24T05:51:19.262626+00:00", "meta": {"OBJECT_NAME": "ARIRANG-5 (KOMPSAT-5)", "OBJECT_ID": "2013-042A", "EPOCH": "2025-12-23T23:35:35.368800", "MEAN_MOTION": 15.0447966, "ECCENTRICITY": 0.0003109, "INCLINATION": 97.6159, "RA_OF_ASC_NODE": 182.1268, "ARG_OF_PERICENTER": 32.8392, "MEAN_ANOMALY": 327.3027, "EPHEMERIS_TYPE": 0, "CLASSIFICATION_TYPE": "U", "NORAD_CAT_ID": 39227, "ELEMENT_SET_NO": 999, "REV_AT_EPOCH": 67751, "BSTAR": 0.00017262006, "MEAN_MOTION_DOT": 2.355e-05, "MEAN_MOTION_DDOT": 0}, "tle": {"line1": "1 39227U 13042A   25357.98304825  .00002355  00000+0  17262-3 0  9999", "line2": "2 39227  97.6159 182.1268 0003109  32.8392 327.3027 15.04479660677512"}}, "geometry": {"type": "Point", "coordinates": [-173.635339316838, -27.42170278176655]}}, {"type": "Feature", "properties": {"norad_id": 39418, "name": "SKYSAT-A", "group": "resource", "lat": -77.50280420885875, "lon": 84.05293398999832, "alt_km": 537.0813339950646, "timestamp": "2025-12-24T05:51:19.262636+00:00", "meta": {"OBJECT_NAME": "SKYSAT-A", "OBJECT_ID": "2013-066C", "EPOCH": "2025-12-23T22:15:57.591360", "MEAN_MOTION": 15.11681429, "ECCENTRICITY": 0.00215324, "INCLINATION": 97.4088, "RA_OF_ASC_NODE": 47.7959, "ARG_OF_PERICENTER": 196.2356, "MEAN_ANOMALY": 163.8188, "EPHEMERIS_TYPE": 0, "CLASSIFICATION_TYPE": "U", "NORAD_CAT_ID": 39418, "ELEMENT_SET_NO": 999, "REV_AT_EPOCH": 66199, "BSTAR": 0.00020573381, "MEAN_MOTION_DOT": 3.456e-05, "MEAN_MOTION_DDOT": 0}, "tle": {"line1": "1 39418U 13066C   25357.92774990  .00003456  00000+0  20573-3 0  9997", "line2": "2 39418  97.4088  47.7959 0021532 196.2356 163.8188 15.11681429661993"}}, "geometry": {"type": "Point", "coordinates": [84.05293398999832, -77.50280420885875]}}, {"type": "Feature", "properties": {"norad_id": 39419, "name": "DUBAISAT-2", "group": "resource", "lat": -70.35259204865199, "lon": 9.784420252268133, "alt_km": 541.4395838790251, "timestamp": "2025-12-24T05:51:19.262646+00:00", "meta": {"OBJECT_NAME": "DUBAISAT-2", "OBJECT_ID": "2013-066D", "EPOCH": "2025-12-23T23:48:16.436160", "MEAN_MOTION": 15.08460045, "ECCENTRICITY": 0.00099807, "INCLINATION": 97.4455, "RA_OF_ASC_NODE": 348.0524, "ARG_OF_PERICENTER": 277.3318, "MEAN_ANOMALY": 82.6776, "EPHEMERIS_TYPE": 0, "CLASSIFICATION_TYPE": "U", "NORAD_CAT_ID": 39419, "ELEMENT_SET_NO": 999, "REV_AT_EPOCH": 65996, "BSTAR": 0.00035618487, "MEAN_MOTION_DOT": 5.494e-05, "MEAN_MOTION_DDOT": 0}, "tle": {"line1": "1 39419U 13066D   25357.99185690  .00005494  00000+0  35618-3 0  9998", "line2": "2 39419  97.4455 348.0524 0009980 277.3318  82.6776 15.08460045659969"}}, "geometry": {"type": "Point", "coordinates": [9.784420252268133, -70.35259204865199]}}, {"type": "Feature", "properties": {"norad_id": 39574, "name": "GPM-CORE", "group": "resource", "lat": 22.194737542883, "lon": -16.832829578977975, "alt_km": 431.72469100201215, "timestamp": "2025-12-24T05:51:19.262656+00:00", "meta": {"OBJECT_NAME": "GPM-CORE", "OBJECT_ID": "2014-009C", "EPOCH": "2025-12-23T21:24:55.422432", "MEAN_MOTION": 15.44631054, "ECCENTRICITY": 0.000917, "INCLINATION": 64.9724, "RA_OF_ASC_NODE": 175.3335, "ARG_OF_PERICENTER": 249.995, "MEAN_ANOMALY": 110.0203, "EPHEMERIS_TYPE": 0, "CLASSIFICATION_TYPE": "U", "NORAD_CAT_ID": 39574, "ELEMENT_SET_NO": 999, "REV_AT_EPOCH": 67073, "BSTAR": 0.0001863823, "MEAN_MOTION_DOT": 8.493e-05, "MEAN_MOTION_DDOT": 0}, "tle": {"line1": "1 39574U 14009C   25357.89230813  .00008493  00000+0  18638-3 0  9990", "line2": "2 39574  64.9724 175.3335 0009170 249.9950 110.0203 15.44631054670737"}}, "geometry": {"type": "Point", "coordinates": [-16.832829578977975, 22.194737542883]}}]}